lat,lng,Add1,Add2,Add3,Add4,Add5,Add6,Add7,zipcode,country
40.251492,-75.6033497,Overlook Drive, Lower Pottsgrove Township, Montgomery County, Pennsylvania,,,,19464, United States of America
40.1600044,-77.686813,Pennsylvania Turnpike, Amberson, Franklin County, Pennsylvania,,,,17210, United States of America
40.4064881,-75.5018477,Bank Street, East Greenville, Montgomery County, Pennsylvania,,,,18041, United States of America
40.3909328,-75.4921248,Main Street, Red Hill, Montgomery County, Pennsylvania,,,,18041, United States of America
40.3730901,-75.4819167,Main Street, Red Hill, Montgomery County, Pennsylvania,,,,18041, United States of America
40.4118569,-75.5070253,Main Street, Red Hill, Montgomery County, Pennsylvania,,,,18041, United States of America
40.4161449,-75.5119705,Main Street, Red Hill, Montgomery County, Pennsylvania,,,,18041, United States of America
40.4427671,-75.5032779,W Mill Hill Rd, Lower Milford, Lehigh County, Pennsylvania,,,,18070, United States of America
40.418989,-75.5521466,County Line Road, Hereford Township, Montgomery County, Pennsylvania,,,,18070, United States of America
40.3847701,-75.4880931,West 11th Street, Red Hill, Montgomery County, Pennsylvania,,,,18073, United States of America
40.3838109,-75.4904159,West 11th Street, Red Hill, Montgomery County, Pennsylvania,,,,18073, United States of America
40.3102297,-75.5003267,Perkiomenville Road, Upper Frederick Township, Montgomery County, Pennsylvania,,,,18074, United States of America
40.3097107,-75.5101999,Little Road, Lower Frederick, Montgomery County, Pennsylvania,,,,18074, United States of America
40.3664929,-75.4461256,Hiffletrayer Road, Marlborough Township, Montgomery County, Pennsylvania,,,,18074, United States of America
40.2832444,-75.5231343,Neiffer Road, Upper Frederick Township, Montgomery County, Pennsylvania,,,,18074, United States of America
40.2902517,-75.5311192,Fagleysville Road, Upper Frederick Township, Montgomery County, Pennsylvania,,,,18074, United States of America
40.3728778,-75.4810131,Bitting Alley, Red Hill, Montgomery County, Pennsylvania,,,,18076, United States of America
40.3412385,-75.4773625,Gravel Pike, Green Lane, Montgomery County, Pennsylvania,,,,18076, United States of America
40.3615933,-75.5057014,Knight Road, Marlborough Township, Montgomery County, Pennsylvania,,,,18076, United States of America
40.3812265,-75.48418,East 8th Street, Red Hill, Montgomery County, Pennsylvania,,,,18076, United States of America
40.3537815,-75.4816505,Knight Road, Marlborough Township, Montgomery County, Pennsylvania,,,,18076, United States of America
40.3506902,-75.4335462,Swamp Creek Road, Marlborough Township, Montgomery County, Pennsylvania,,,,18084, United States of America
40.3531049,-75.5258807,Hill Road, Upper Frederick Township, Montgomery County, Pennsylvania,,,,18084, United States of America
40.3533511,-75.4572477,Geryville Pike, Marlborough Township, Montgomery County, Pennsylvania,,,,18084, United States of America
40.3262463,-75.4564598,Church Road, Marlborough Township, Montgomery County, Pennsylvania,,,,18084, United States of America
40.2735513,-75.1695341,Bristol Road, Warrington Township, Bucks County, Pennsylvania,,,,18194, United States of America
40.30479,-75.3638279,Harleysville Pike, Franconia Township, Montgomery County, Pennsylvania,,,,18924, United States of America
40.3072004,-75.358305,Harleysville Pike, Franconia Township, Montgomery County, Pennsylvania,,,,18924, United States of America
40.3145367,-75.3528779,Alexander Drive, Franconia Township, Montgomery County, Pennsylvania,,,,18924, United States of America
40.2867873,-75.361651,Schoolhouse Road, Franconia Township, Montgomery County, Pennsylvania,,,,18924, United States of America
40.2556874,-75.3197709,Allentown Road, Franconia Township, Montgomery County, Pennsylvania,,,,18924, United States of America
40.3056819,-75.3652445,Meetinghouse Road, Franconia Township, Montgomery County, Pennsylvania,,,,18924, United States of America
40.3030379,-75.2598757,Hilltown Pike, Hilltown Township, Bucks County, Pennsylvania,,,,18932, United States of America
40.2897645,-75.2693082,Bethlehem Pike, Hatfield Township, Montgomery County, Pennsylvania,,,,18932, United States of America
40.348132,-75.334199,Cathill Road, West Rockhill, Bucks County, Pennsylvania,,,,18960, United States of America
40.3265629,-75.294418,Souderton Road, Hilltown Township, Bucks County, Pennsylvania,,,,18962, United States of America
40.3117706,-75.3251759,North Main Street, Souderton, Montgomery County, Pennsylvania,,,,18964, United States of America
40.299124,-75.3086342,East Township Line Road, Hatfield Township, Montgomery County, Pennsylvania,,,,18964, United States of America
40.3179423,-75.3291573,East Reliance Road, Telford, Montgomery County, Pennsylvania,,,,18964, United States of America
40.3107909,-75.3363427,West Reliance Road, Souderton, Montgomery County, Pennsylvania,,,,18964, United States of America
40.3133925,-75.3394427,Cowpath Road, Franconia Township, Montgomery County, Pennsylvania,,,,18969, United States of America
40.3127544,-75.434939,Barndt Road, Upper Salford Township, Montgomery County, Pennsylvania,,,,18969, United States of America
40.3260149,-75.320995,East Reliance Road, Telford, Bucks County, Pennsylvania,,,,18969, United States of America
40.2987355,-75.3928027,Mill Road, Franconia Township, Montgomery County, Pennsylvania,,,,18969, United States of America
40.3169885,-75.320067,Hillcrest Avenue, Souderton, Montgomery County, Pennsylvania,,,,18969, United States of America
40.4213146,-75.4480407,John Fries Highway, Milford, Bucks County, Pennsylvania,,,,18970, United States of America
40.197056,-75.0817219,Jacksonville Road, Ivyland, Bucks County, Pennsylvania,,,,18974, United States of America
40.247757,-75.1671027,West Street Road, Warrington Township, Bucks County, Pennsylvania,,,,18976, United States of America
40.1198332,-75.1253492,Jericho Road, Abington Township, Montgomery County, Pennsylvania,,,,19001, United States of America
40.111631,-75.121396,Brook Road, Abington Township, Montgomery County, Pennsylvania,,,,19001, United States of America
40.1371268,-75.1099188,Moreland Road, Upper Moreland Township, Montgomery County, Pennsylvania,,,,19001, United States of America
40.1532684,-75.1895576,Tressler Drive, Upper Dublin Township, Montgomery County, Pennsylvania,,,,19002, United States of America
40.1793752,-75.2362381,Sturgis Lane, Lower Gwynedd Township, Montgomery County, Pennsylvania,,,,19002, United States of America
40.1324422,-75.2031093,Pennsylvania Avenue, Upper Dublin Township, Montgomery County, Pennsylvania,,,,19002, United States of America
40.1760925,-75.2369898,Penllyn Pike, Lower Gwynedd Township, Montgomery County, Pennsylvania,,,,19002, United States of America
40.1732284,-75.1828277,Limekiln Pike, Upper Dublin Township, Montgomery County, Pennsylvania,,,,19002, United States of America
40.1606201,-75.1782526,Dillon Road, Upper Dublin Township, Montgomery County, Pennsylvania,,,,19002, United States of America
40.1554438,-75.2051293,Loch Alsh Avenue, Upper Dublin Township, Montgomery County, Pennsylvania,,,,19002, United States of America
40.1562541,-75.1925731,Fort Washington Avenue, Upper Dublin Township, Montgomery County, Pennsylvania,,,,19002, United States of America
40.1776496,-75.2646635,Township Line Road, Upper Gwynedd Township, Montgomery County, Pennsylvania,,,,19002, United States of America
40.1602422,-75.1786273,Dillon Road, Upper Dublin Township, Montgomery County, Pennsylvania,,,,19002, United States of America
40.1507107,-75.0552739,Chimney Swift Drive, Lower Moreland Township, Montgomery County, Pennsylvania,,,,19006, United States of America
40.1489852,-75.033499,Buck Road, Lower Moreland Township, Bucks County, Pennsylvania,,,,19006, United States of America
40.1223714,-75.0782679,Valley Road, Lower Moreland Township, Montgomery County, Pennsylvania,,,,19006, United States of America
40.1483375,-75.0977475,Terwood Road, Upper Moreland Township, Montgomery County, Pennsylvania,,,,19006, United States of America
40.1112176,-75.0764435,Huntingdon Pike, Abington Township, Montgomery County, Pennsylvania,,,,19006, United States of America
40.1409197,-75.0935968,Edge Hill Road, Upper Moreland Township, Montgomery County, Pennsylvania,,,,19006, United States of America
40.1139191,-75.0883542,Valley Road, Abington Township, Montgomery County, Pennsylvania,,,,19006, United States of America
40.1361086,-75.053822,Buck Road, Lower Moreland Township, Bucks County, Pennsylvania,,,,19006, United States of America
40.0828992,-75.0917889,Huntingdon Pike, Rockledge, Montgomery County, Pennsylvania,,,,19006, United States of America
40.1355228,-75.0617652,Huntingdon Pike, Bryn Athyn, Montgomery County, Pennsylvania,,,,19006, United States of America
40.1417954,-75.0703206,Paper Mill Road, Bryn Athyn, Montgomery County, Pennsylvania,,,,19006, United States of America
40.0125442,-75.3621099,Clyde Road, Radnor Township, Delaware County, Pennsylvania,,,,19010, United States of America
40.0330621,-75.333805,East County Line Road, Radnor Township, Delaware County, Pennsylvania,,,,19010, United States of America
40.0369008,-75.3558181,East Lancaster Avenue, Radnor Township, Delaware County, Pennsylvania,,,,19010, United States of America
40.0303728,-75.3630235,Conestoga Road, Radnor Township, Delaware County, Pennsylvania,,,,19010, United States of America
40.0139085,-75.3662691,Sproul Road, Radnor Township, Delaware County, Pennsylvania,,,,19010, United States of America
40.0393846,-75.3206886,North Ithan Avenue, Lower Merion Township, Montgomery County, Pennsylvania,,,,19010, United States of America
40.0515145,-75.3031772,Roscommon Road, Lower Merion Township, Montgomery County, Pennsylvania,,,,19010, United States of America
40.1213415,-75.1336768,Susquehanna Road, Abington Township, Montgomery County, Pennsylvania,,,,19025, United States of America
40.1607092,-75.1495402,Dreshertown Road, Upper Dublin Township, Montgomery County, Pennsylvania,,,,19025, United States of America
40.1357247,-75.1600335,Twining Road, Upper Dublin Township, Montgomery County, Pennsylvania,,,,19025, United States of America
40.1585606,-75.1651454,Jarrettown Road, Upper Dublin Township, Montgomery County, Pennsylvania,,,,19025, United States of America
40.0732571,-75.0998688,Perry Street, Abington Township, Montgomery County, Pennsylvania,,,,19027, United States of America
40.1192546,-75.2362381,Joshua Road, Whitemarsh Township, Montgomery County, Pennsylvania,,,,19034, United States of America
40.1249557,-75.1967351,Camp Hill Road, Springfield Township, Montgomery County, Pennsylvania,,,,19034, United States of America
40.1450898,-75.1986934,Highland Avenue, Ambler, Montgomery County, Pennsylvania,,,,19034, United States of America
40.1194905,-75.2467748,Militia Hill Road, Whitemarsh Township, Montgomery County, Pennsylvania,,,,19034, United States of America
40.0534737,-75.3069767,Spring Mill Road, Lower Merion Township, Montgomery County, Pennsylvania,,,,19035, United States of America
40.0456024,-75.3236605,Spring Mill Road, Lower Merion Township, Montgomery County, Pennsylvania,,,,19035, United States of America
40.0985795,-75.1519302,South Keswick Avenue, Cheltenham Township, Montgomery County, Pennsylvania,,,,19038, United States of America
40.1065488,-75.1758214,South Fairway Road, Springfield Township, Montgomery County, Pennsylvania,,,,19038, United States of America
40.1640959,-75.1549526,Welsh Road, Horsham Township, Montgomery County, Pennsylvania,,,,19040, United States of America
40.1256093,-75.1654547,Limekiln Pike, Upper Dublin Township, Montgomery County, Pennsylvania,,,,19040, United States of America
40.1286835,-75.1110735,Old Welsh Road, Abington Township, Montgomery County, Pennsylvania,,,,19040, United States of America
40.1721708,-75.1411409,Dresher Road, Horsham Township, Montgomery County, Pennsylvania,,,,19040, United States of America
40.1338583,-75.1244262,Easton Road, Abington Township, Montgomery County, Pennsylvania,,,,19040, United States of America
40.1250215,-75.1211446,Edge Hill Road, Abington Township, Montgomery County, Pennsylvania,,,,19040, United States of America
40.1499988,-75.1706475,Limekiln Pike, Upper Dublin Township, Montgomery County, Pennsylvania,,,,19040, United States of America
40.174672,-75.1245213,Lynne Avenue, Upper Moreland Township, Montgomery County, Pennsylvania,,,,19040, United States of America
40.1326389,-75.1256306,Easton Road, Abington Township, Montgomery County, Pennsylvania,,,,19040, United States of America
40.1391751,-75.112544,York Road, Upper Moreland Township, Montgomery County, Pennsylvania,,,,19040, United States of America
40.1766424,-75.176339,Welsh Road, Horsham Township, Montgomery County, Pennsylvania,,,,19040, United States of America
39.9949804,-75.300133,Haverford Road, Haverford Township, Delaware County, Pennsylvania,,,,19041, United States of America
40.1901039,-75.1238937,Meetinghouse Road, Horsham Township, Montgomery County, Pennsylvania,,,,19044, United States of America
40.0892459,-75.1049027,Fox Chase Road, Abington Township, Montgomery County, Pennsylvania,,,,19046, United States of America
40.0903246,-75.1291262,Washington Lane, Abington Township, Montgomery County, Pennsylvania,,,,19046, United States of America
40.1194324,-75.1664773,Limekiln Pike, Upper Dublin Township, Montgomery County, Pennsylvania,,,,19046, United States of America
40.1150318,-75.1259828,Highland Avenue, Abington Township, Montgomery County, Pennsylvania,,,,19046, United States of America
40.115473,-75.1366635,Mount Vernon Gardens Drive, Abington Township, Montgomery County, Pennsylvania,,,,19046, United States of America
40.095529,-75.1148849,Meetinghouse Rd, Abington Township, Montgomery County, Pennsylvania,,,,19046, United States of America
40.1023408,-75.0785987,Moredon Road, Abington Township, Montgomery County, Pennsylvania,,,,19046, United States of America
40.0117819,-75.2543637,Maplewood Avenue, Narberth, Montgomery County, Pennsylvania,,,,19066, United States of America
40.1004231,-75.2070644,Haws Lane, Springfield Township, Montgomery County, Pennsylvania,,,,19075, United States of America
40.1016118,-75.1940266,Paper Mill Road, Springfield Township, Montgomery County, Pennsylvania,,,,19075, United States of America
40.0667184,-75.307176,Conshohocken State Road, West Conshohocken, Montgomery County, Pennsylvania,,,,19085, United States of America
40.0571228,-75.3324232,Mid County Expressway, West Conshohocken, Montgomery County, Pennsylvania,,,,19085, United States of America
40.0767665,-75.3850024,King of Prussia Road, Upper Merion Township, Montgomery County, Pennsylvania,,,,19087, United States of America
40.1568468,-75.1019942,Davisville Road, Upper Moreland Township, Montgomery County, Pennsylvania,,,,19090, United States of America
40.1784422,-75.1285061,Easton Road, Horsham Township, Montgomery County, Pennsylvania,,,,19090, United States of America
40.1207169,-75.0748772,Welsh Road, Lower Moreland Township, Montgomery County, Pennsylvania,,,,19090, United States of America
40.1741251,-75.1250949,Blair Mill Road, Upper Moreland Township, Montgomery County, Pennsylvania,,,,19090, United States of America
40.1350483,-75.1491608,Fitzwatertown Road, Upper Dublin Township, Montgomery County, Pennsylvania,,,,19090, United States of America
40.128504,-75.1598808,Fitzwatertown Road, Upper Dublin Township, Montgomery County, Pennsylvania,,,,19090, United States of America
40.1602878,-75.0943924,Davisville Road, Upper Moreland Township, Montgomery County, Pennsylvania,,,,19090, United States of America
40.171473,-75.1278731,Blair Mill Road, Upper Moreland Township, Montgomery County, Pennsylvania,,,,19090, United States of America
40.1855727,-75.0954423,West County Line Road, Warminster Township, Bucks County, Pennsylvania,,,,19090, United States of America
40.170868,-75.1270026,Willow Avenue, Upper Moreland Township, Montgomery County, Pennsylvania,,,,19090, United States of America
40.2017281,-75.1227512,West County Line Road, Warminster Township, Bucks County, Pennsylvania,,,,19090, United States of America
40.1911266,-75.134934,Wayne Avenue, Horsham Township, Montgomery County, Pennsylvania,,,,19090, United States of America
40.165233,-75.0853202,Byberry Road, Upper Moreland Township, Montgomery County, Pennsylvania,,,,19090, United States of America
40.1759675,-75.0793581,E County Line Rd, Upper Moreland Township, Montgomery County, Pennsylvania,,,,19090, United States of America
40.2038335,-75.1263156,West County Line Road, Warminster Township, Bucks County, Pennsylvania,,,,19090, United States of America
40.1690324,-75.1104584,South York Road, Hatboro, Montgomery County, Pennsylvania,,,,19090, United States of America
40.1314988,-75.0673938,Alnwick Road, Lower Moreland Township, Montgomery County, Pennsylvania,,,,19090, United States of America
40.16255,-75.0675544,Pennsylvania Turnpike, Upper Moreland Township, Montgomery County, Pennsylvania,,,,19090, United States of America
40.1921969,-75.1352771,Maple Avenue, Horsham Township, Montgomery County, Pennsylvania,,,,19090, United States of America
40.131321,-75.1544604,Fitzwatertown Road, Upper Dublin Township, Montgomery County, Pennsylvania,,,,19090, United States of America
40.1842502,-75.0931952,E County Line Rd, Warminster Township, Bucks County, Pennsylvania,,,,19090, United States of America
40.1278288,-75.1241476,Rothley Avenue, Abington Township, Montgomery County, Pennsylvania,,,,19090, United States of America
40.1564668,-75.0804317,Masons Mill Rd, Upper Moreland Township, Montgomery County, Pennsylvania,,,,19090, United States of America
40.1555246,-75.1017692,Davisville Road, Upper Moreland Township, Montgomery County, Pennsylvania,,,,19090, United States of America
40.1371301,-75.1342031,Coolidge Avenue, Abington Township, Montgomery County, Pennsylvania,,,,19090, United States of America
40.1637618,-75.1109767,South York Road, Upper Moreland Township, Montgomery County, Pennsylvania,,,,19090, United States of America
40.165951,-75.1337712,Blair Mill Road, Upper Moreland Township, Montgomery County, Pennsylvania,,,,19090, United States of America
40.0907527,-75.1531588,Rices Mill Road, Cheltenham Township, Montgomery County, Pennsylvania,,,,19095, United States of America
40.1087245,-75.1927332,Church Rd, Springfield Township, Montgomery County, Pennsylvania,,,,19118, United States of America
40.086567,-75.166432,Easton Road, Cheltenham Township, Montgomery County, Pennsylvania,,,,19118, United States of America
40.0829813,-75.2063031,Stenton Avenue, Springfield Township, Philadelphia County, Pennsylvania,,,,19118, United States of America
40.0851618,-75.2345192,Thomas Road, Springfield Township, Montgomery County, Pennsylvania,,,,19118, United States of America
40.0844053,-75.2086747,Stenton Avenue, Springfield Township, Philadelphia County, Pennsylvania,,,,19118, United States of America
40.0988044,-75.212824,Bethlehem Pike, Springfield Township, Montgomery County, Pennsylvania,,,,19128, United States of America
40.1159732,-75.2149564,Bethlehem Pike, Whitemarsh Township, Montgomery County, Pennsylvania,,,,19128, United States of America
39.9983225,-75.2606406,East Wynnewood Road, Narberth, Philadelphia County, Pennsylvania,,,,19131, United States of America
40.1726706,-75.402652,Germantown Pike, Lower Providence Township, Montgomery County, Pennsylvania,,,,19246, United States of America
40.1041852,-75.4399451,Valley Forge Road, Upper Merion Township, Montgomery County, Pennsylvania,,,,19355, United States of America
40.078245,-75.4797525,Rochambeau Drive, Tredyffrin Township, Chester County, Pennsylvania,,,,19355, United States of America
40.0987944,-75.4302839,County Line Road West, Tredyffrin Township, Montgomery County, Pennsylvania,,,,19355, United States of America
40.0956941,-75.4586816,Valley Creek Road, Upper Merion Township, Montgomery County, Pennsylvania,,,,19355, United States of America
40.1108886,-75.3344587,East Main Street, Norristown, Montgomery County, Pennsylvania,,,,19401, United States of America
40.1326358,-75.3428526,Stanbridge Street, Norristown, Montgomery County, Pennsylvania,,,,19401, United States of America
40.1267624,-75.3593631,Forrest Avenue, Norristown, Montgomery County, Pennsylvania,,,,19401, United States of America
40.1433257,-75.422819,Oriole Court, Lower Providence Township, Montgomery County, Pennsylvania,,,,19403, United States of America
40.1514441,-75.4235674,Eagleville Road, Lower Providence Township, Montgomery County, Pennsylvania,,,,19403, United States of America
40.1341858,-75.3563278,Sterigere Street, Norristown, Montgomery County, Pennsylvania,,,,19403, United States of America
40.1152488,-75.3413789,Dekalb Street, Norristown, Montgomery County, Pennsylvania,,,,19405, United States of America
40.0990757,-75.3521479,Dekalb Street, Bridgeport, Montgomery County, Pennsylvania,,,,19405, United States of America
40.1053834,-75.3470323,Dekalb Street, Bridgeport, Montgomery County, Pennsylvania,,,,19405, United States of America
40.1043407,-75.3476501,Dekalb Street, Bridgeport, Montgomery County, Pennsylvania,,,,19405, United States of America
40.0972222,-75.3761952,Stonybrook Road, Upper Merion Township, Montgomery County, Pennsylvania,,,,19406, United States of America
40.08732,-75.4050546,North Gulph Road, Upper Merion Township, Montgomery County, Pennsylvania,,,,19406, United States of America
40.1047239,-75.3520498,Ross Road, Bridgeport, Montgomery County, Pennsylvania,,,,19406, United States of America
40.0897636,-75.4164365,Pennsylvania Turnpike, Tredyffrin Township, Chester County, Pennsylvania,,,,19406, United States of America
40.0951086,-75.4058052,1st Avenue, Upper Merion Township, Montgomery County, Pennsylvania,,,,19406, United States of America
40.0875677,-75.4055591,North Gulph Road, Upper Merion Township, Montgomery County, Pennsylvania,,,,19406, United States of America
40.0774952,-75.3620325,South Gulph Road, Upper Merion Township, Montgomery County, Pennsylvania,,,,19406, United States of America
40.0723747,-75.3566296,Hughes Road, Upper Merion Township, Montgomery County, Pennsylvania,,,,19406, United States of America
40.1055874,-75.3600254,East Valley Forge Road, Upper Merion Township, Montgomery County, Pennsylvania,,,,19406, United States of America
40.0703546,-75.3409198,Trinity Lane, Upper Merion Township, Montgomery County, Pennsylvania,,,,19406, United States of America
40.0774047,-75.3616956,South Gulph Road, Upper Merion Township, Montgomery County, Pennsylvania,,,,19406, United States of America
40.1518195,-75.2665979,Penllyn Blue Bell Pike, Whitpain Township, Montgomery County, Pennsylvania,,,,19422, United States of America
40.1323698,-75.2677188,Stenton Avenue, Whitemarsh Township, Montgomery County, Pennsylvania,,,,19422, United States of America
40.1098306,-75.2433906,Stenton Avenue, Whitemarsh Township, Montgomery County, Pennsylvania,,,,19422, United States of America
40.1663707,-75.2386696,Pen Ambler Road, Lower Gwynedd Township, Montgomery County, Pennsylvania,,,,19422, United States of America
40.1723141,-75.4927278,South Mennonite Road, Upper Providence Township, Montgomery County, Pennsylvania,,,,19426, United States of America
40.1665145,-75.4721505,South Collegeville Road, Upper Providence Township, Montgomery County, Pennsylvania,,,,19426, United States of America
40.2337131,-75.4636031,Maple Avenue, Perkiomen Township, Montgomery County, Pennsylvania,,,,19426, United States of America
40.2190898,-75.4038738,Collegeville Road, Skippack Township, Montgomery County, Pennsylvania,,,,19426, United States of America
40.1771858,-75.4904029,South Trappe Road, Upper Providence Township, Montgomery County, Pennsylvania,,,,19426, United States of America
40.2084788,-75.4898192,West Main Street, Trappe, Montgomery County, Pennsylvania,,,,19426, United States of America
40.1798127,-75.4405967,Ridge Pike, Lower Providence Township, Montgomery County, Pennsylvania,,,,19426, United States of America
40.2209665,-75.4531685,Gravel Pike, Perkiomen Township, Montgomery County, Pennsylvania,,,,19426, United States of America
40.2001897,-75.4932179,North Borough Line Road, Trappe, Montgomery County, Pennsylvania,,,,19426, United States of America
40.2225593,-75.4860688,Wartman Road, Perkiomen Township, Montgomery County, Pennsylvania,,,,19426, United States of America
40.0698321,-75.3162951,Josephine Avenue, West Conshohocken, Montgomery County, Pennsylvania,,,,19428, United States of America
40.0692669,-75.3334126,Balligomingo Road, West Conshohocken, Montgomery County, Pennsylvania,,,,19428, United States of America
40.0776678,-75.3712958,Schuylkill Expressway, Upper Merion Township, Montgomery County, Pennsylvania,,,,19428, United States of America
40.0768692,-75.3677366,Schuylkill Expressway, Upper Merion Township, Montgomery County, Pennsylvania,,,,19428, United States of America
40.059234,-75.3393019,West Matsonford Road, Upper Merion Township, Montgomery County, Pennsylvania,,,,19428, United States of America
40.1024163,-75.3446071,East 7th Street, Bridgeport, Montgomery County, Pennsylvania,,,,19428, United States of America
40.0599653,-75.3380125,West Matsonford Road, Upper Merion Township, Montgomery County, Pennsylvania,,,,19428, United States of America
40.0918007,-75.3202826,Schuylkill River Trail, Conshohocken, Montgomery County, Pennsylvania,,,,19428, United States of America
40.3158253,-75.5797925,Big Road, New Hanover Township, Montgomery County, Pennsylvania,,,,19435, United States of America
40.3127054,-75.5573542,Church Road, New Hanover Township, Montgomery County, Pennsylvania,,,,19435, United States of America
40.2860208,-75.5647478,New Hanover Square Road, New Hanover Township, Montgomery County, Pennsylvania,,,,19435, United States of America
40.2290075,-75.3878525,Township Line Road, Skippack Township, Montgomery County, Pennsylvania,,,,19438, United States of America
40.2605317,-75.3995089,Andrews Drive, Lower Salford Township, Montgomery County, Pennsylvania,,,,19438, United States of America
40.2305908,-75.3930788,Township Line Road, Skippack Township, Montgomery County, Pennsylvania,,,,19438, United States of America
40.2456041,-75.3940639,Cressman Road, Lower Salford Township, Montgomery County, Pennsylvania,,,,19438, United States of America
40.279743,-75.2770721,East Orvilla Road, Hatfield Township, Montgomery County, Pennsylvania,,,,19440, United States of America
40.2690902,-75.3132642,Forty Foot Road, Hatfield Township, Montgomery County, Pennsylvania,,,,19440, United States of America
40.2658664,-75.2991339,Koffel Road, Hatfield, Montgomery County, Pennsylvania,,,,19440, United States of America
40.2917183,-75.3022353,Bergey Road, Hatfield Township, Montgomery County, Pennsylvania,,,,19440, United States of America
40.277269,-75.318204,Elroy Road, Hatfield Township, Montgomery County, Pennsylvania,,,,19440, United States of America
40.2783811,-75.3213067,Derstine Road, Hatfield Township, Montgomery County, Pennsylvania,,,,19440, United States of America
40.2541493,-75.3300278,Forty Foot Road, Towamencin Township, Montgomery County, Pennsylvania,,,,19443, United States of America
40.2135545,-75.3296757,Morris Road, Worcester Township, Montgomery County, Pennsylvania,,,,19443, United States of America
40.2371671,-75.3483548,Bustard Rd, Towamencin Township, Montgomery County, Pennsylvania,,,,19443, United States of America
40.2695985,-75.3502213,Fretz Road, Towamencin Township, Montgomery County, Pennsylvania,,,,19443, United States of America
40.0883336,-75.2645768,Tamara Court, Whitemarsh Township, Montgomery County, Pennsylvania,,,,19444, United States of America
40.1024996,-75.2783186,East Germantown Pike, Whitemarsh Township, Montgomery County, Pennsylvania,,,,19444, United States of America
40.0741501,-75.2629916,Kinder Road, Whitemarsh Township, Montgomery County, Pennsylvania,,,,19444, United States of America
40.0865418,-75.2335292,Germantown Pike, Whitemarsh Township, Montgomery County, Pennsylvania,,,,19444, United States of America
40.067477,-75.2568999,Manor Rd, Whitemarsh Township, Montgomery County, Pennsylvania,,,,19444, United States of America
40.0832673,-75.2378418,Andorra Road, Whitemarsh Township, Montgomery County, Pennsylvania,,,,19444, United States of America
40.251523,-75.329557,Brunswick Court, Towamencin Township, Montgomery County, Pennsylvania,,,,19446, United States of America
40.2414952,-75.2837862,South Broad Street, Lansdale, Montgomery County, Pennsylvania,,,,19446, United States of America
40.2422013,-75.3356069,Sumneytown Pike, Towamencin Township, Montgomery County, Pennsylvania,,,,19446, United States of America
40.2224824,-75.3039846,Sumneytown Pike, Towamencin Township, Montgomery County, Pennsylvania,,,,19446, United States of America
40.1996835,-75.2882093,West Walnut Street, Upper Gwynedd Township, Montgomery County, Pennsylvania,,,,19446, United States of America
40.2569349,-75.2705657,Garden Street, Hatfield Township, Montgomery County, Pennsylvania,,,,19446, United States of America
40.2649583,-75.2940536,Orvilla Road, Hatfield Township, Montgomery County, Pennsylvania,,,,19446, United States of America
40.2631978,-75.2957897,Orvilla Road, Hatfield Township, Montgomery County, Pennsylvania,,,,19446, United States of America
40.2561288,-75.308106,Welsh Road, Hatfield Township, Montgomery County, Pennsylvania,,,,19446, United States of America
40.2178519,-75.2948065,Sumneytown Pike, Towamencin Township, Montgomery County, Pennsylvania,,,,19446, United States of America
40.2565439,-75.3540467,Wambold Road, Towamencin Township, Montgomery County, Pennsylvania,,,,19451, United States of America
40.2647215,-75.3461247,Wambold Road, Towamencin Township, Montgomery County, Pennsylvania,,,,19451, United States of America
40.1369729,-75.4727228,Egypt Road, Upper Providence Township, Montgomery County, Pennsylvania,,,,19453, United States of America
40.2319898,-75.2518915,Knapp Road, Lansdale, Montgomery County, Pennsylvania,,,,19454, United States of America
40.2212266,-75.2887369,Church Road, Upper Gwynedd Township, Montgomery County, Pennsylvania,,,,19454, United States of America
40.2394356,-75.2362381,Upper State Road, Montgomery Township, Montgomery County, Pennsylvania,,,,19454, United States of America
40.2522137,-75.2522111,Cowpath Road, Montgomery Township, Montgomery County, Pennsylvania,,,,19454, United States of America
40.2574281,-75.2141491,Upper State Road, Montgomery Township, Montgomery County, Pennsylvania,,,,19454, United States of America
40.2179846,-75.2444196,Welsh Road, Lower Gwynedd Township, Montgomery County, Pennsylvania,,,,19454, United States of America
40.2753834,-75.2625921,Trewigtown Road, Hatfield Township, Montgomery County, Pennsylvania,,,,19454, United States of America
40.1876155,-75.2266796,North Bethlehem Pike, Lower Gwynedd Township, Montgomery County, Pennsylvania,,,,19454, United States of America
40.258213,-75.2658057,North Broad Street, Lansdale, Montgomery County, Pennsylvania,,,,19454, United States of America
40.2232779,-75.2053072,Lower State Road, Montgomery Township, Montgomery County, Pennsylvania,,,,19454, United States of America
40.253964,-75.208279,County Line Road, Montgomery Township, Bucks County, Pennsylvania,,,,19454, United States of America
40.2576781,-75.2212002,Spring Valley Drive, Montgomery Township, Montgomery County, Pennsylvania,,,,19454, United States of America
40.1968779,-75.2675793,Swedesford Road, Upper Gwynedd Township, Montgomery County, Pennsylvania,,,,19454, United States of America
40.2525932,-75.2472932,Bethlehem Pike, Montgomery Township, Montgomery County, Pennsylvania,,,,19454, United States of America
40.2659446,-75.2771874,Cowpath Road, Hatfield Township, Montgomery County, Pennsylvania,,,,19454, United States of America
40.235141,-75.2248474,Stump Road, Montgomery Township, Montgomery County, Pennsylvania,,,,19454, United States of America
40.2477968,-75.236906,North Wales Road, Montgomery Township, Montgomery County, Pennsylvania,,,,19454, United States of America
40.1983023,-75.2431965,Evans Road, Lower Gwynedd Township, Montgomery County, Pennsylvania,,,,19454, United States of America
40.2791827,-75.2515887,County Line Road, Hatfield Township, Montgomery County, Pennsylvania,,,,19454, United States of America
40.1956165,-75.2590536,DeKalb Pike, Lower Gwynedd Township, Montgomery County, Pennsylvania,,,,19454, United States of America
40.2456799,-75.2265002,Upper State Road, Montgomery Township, Montgomery County, Pennsylvania,,,,19454, United States of America
40.277234,-75.2603805,Bethlehem Pike, Hatfield Township, Montgomery County, Pennsylvania,,,,19454, United States of America
40.1521886,-75.4805116,Black Rock Road, Upper Providence Township, Montgomery County, Pennsylvania,,,,19460, United States of America
40.118269,-75.4478187,Pawlings Road, Lower Providence Township, Montgomery County, Pennsylvania,,,,19460, United States of America
40.1369841,-75.4758552,Longford Road, Upper Providence Township, Montgomery County, Pennsylvania,,,,19460, United States of America
40.1754009,-75.5425503,Schuylkill River Trail, Spring City, Chester County, Pennsylvania,,,,19460, United States of America
40.1504383,-75.4420406,Arcola Road, Lower Providence Township, Montgomery County, Pennsylvania,,,,19460, United States of America
40.16701,-75.5563159,Schuylkill Road, East Pikeland Township, Chester County, Pennsylvania,,,,19460, United States of America
40.1017766,-75.25378,Flourtown Road, Whitemarsh Township, Montgomery County, Pennsylvania,,,,19462, United States of America
40.1082672,-75.3062326,Pennsylvania Turnpike, Plymouth Township, Montgomery County, Pennsylvania,,,,19462, United States of America
40.1180645,-75.3071013,Belvoir Road, Plymouth Township, Montgomery County, Pennsylvania,,,,19462, United States of America
40.133207,-75.2805505,Township Line Road, Whitpain Township, Montgomery County, Pennsylvania,,,,19462, United States of America
40.0985313,-75.3003538,W Ridge Pike, Plymouth Township, Montgomery County, Pennsylvania,,,,19462, United States of America
40.1266591,-75.2836846,Walton Road, Plymouth Township, Montgomery County, Pennsylvania,,,,19462, United States of America
40.1319453,-75.2631426,Norristown Road, Whitpain Township, Montgomery County, Pennsylvania,,,,19462, United States of America
40.1068475,-75.3012404,Gallagher Road, Plymouth Township, Montgomery County, Pennsylvania,,,,19462, United States of America
40.1458948,-75.3029068,East Township Line Road, Whitpain Township, Montgomery County, Pennsylvania,,,,19462, United States of America
40.1339474,-75.3094391,Old Arch Road, Norristown, Montgomery County, Pennsylvania,,,,19462, United States of America
40.0936744,-75.2800887,Spring Mill Road, Whitemarsh Township, Montgomery County, Pennsylvania,,,,19462, United States of America
40.2859406,-75.6382657,Gilbertsville Road, Upper Pottsgrove Township, Montgomery County, Pennsylvania,,,,19464, United States of America
40.2488883,-75.681899,Lemon Street, West Pottsgrove, Montgomery County, Pennsylvania,,,,19464, United States of America
40.2250435,-75.6607542,Pottstown Pike, North Coventry Township, Chester County, Pennsylvania,,,,19464, United States of America
40.2969258,-75.5878962,North Charlotte Street, New Hanover Township, Montgomery County, Pennsylvania,,,,19464, United States of America
40.2425614,-75.6496483,Industrial Highway, Pottstown, Montgomery County, Pennsylvania,,,,19464, United States of America
40.2419341,-75.667974,Pottstown Bypass, North Coventry Township, Chester County, Pennsylvania,,,,19464, United States of America
40.23426,-75.5499258,Jones Boulevard, Limerick Township, Montgomery County, Pennsylvania,,,,19464, United States of America
40.2325375,-75.6169896,Armand Hammer Boulevard, Lower Pottsgrove Township, Montgomery County, Pennsylvania,,,,19464, United States of America
40.2810322,-75.6644586,Levengood Road, Upper Pottsgrove Township, Montgomery County, Pennsylvania,,,,19464, United States of America
40.2274316,-75.6235951,East Schuylkill Road, East Coventry Township, Chester County, Pennsylvania,,,,19465, United States of America
40.2420366,-75.6512908,Hanover Street, Pottstown, Chester County, Pennsylvania,,,,19465, United States of America
40.2299058,-75.4847898,North Township Line Road, Perkiomen Township, Montgomery County, Pennsylvania,,,,19468, United States of America
40.2453742,-75.5212837,Metka Road, Limerick Township, Montgomery County, Pennsylvania,,,,19468, United States of America
40.1842688,-75.5379639,South 4th Avenue, Royersford, Montgomery County, Pennsylvania,,,,19468, United States of America
40.2196355,-75.4949145,North Township Line Road, Perkiomen Township, Montgomery County, Pennsylvania,,,,19468, United States of America
40.2536014,-75.5247048,Neiffer Road, Limerick Township, Montgomery County, Pennsylvania,,,,19468, United States of America
40.2152182,-75.5831131,Longview Road, Limerick Township, Montgomery County, Pennsylvania,,,,19468, United States of America
40.3516165,-75.5855454,Hoffmansville Road, Douglass Township, Montgomery County, Pennsylvania,,,,19472, United States of America
40.3319018,-75.544029,Little Road, New Hanover Township, Montgomery County, Pennsylvania,,,,19472, United States of America
40.3271278,-75.5568506,Hoffmansville Road, New Hanover Township, Montgomery County, Pennsylvania,,,,19472, United States of America
40.2254016,-75.4469886,Perkiomen Creek Road, Skippack Township, Montgomery County, Pennsylvania,,,,19473, United States of America
40.2417723,-75.500101,North Limerick Road, Limerick Township, Montgomery County, Pennsylvania,,,,19473, United States of America
40.2724677,-75.4927278,Creekside Way, Lower Frederick, Montgomery County, Pennsylvania,,,,19473, United States of America
40.2270006,-75.4533565,Gravel Pike, Perkiomen Township, Montgomery County, Pennsylvania,,,,19473, United States of America
40.2678456,-75.4004269,Harleysville Pike, Lower Salford Township, Montgomery County, Pennsylvania,,,,19473, United States of America
40.2907756,-75.4402993,Salford Station road, Upper Salford Township, Montgomery County, Pennsylvania,,,,19473, United States of America
40.3106761,-75.4307969,Sumneytown Pike, Upper Salford Township, Montgomery County, Pennsylvania,,,,19473, United States of America
40.263027,-75.4128941,Camp Wawa Road, Lower Salford Township, Montgomery County, Pennsylvania,,,,19473, United States of America
40.3098484,-75.428851,Thompson Road, Upper Salford Township, Montgomery County, Pennsylvania,,,,19473, United States of America
40.3352536,-75.4061988,Ridge Road, Salford Township, Montgomery County, Pennsylvania,,,,19473, United States of America
40.29826,-75.439946,Old Skippack Road, Upper Salford Township, Montgomery County, Pennsylvania,,,,19473, United States of America
40.2372341,-75.4657393,Seitz Road, Perkiomen Township, Montgomery County, Pennsylvania,,,,19473, United States of America
40.2408681,-75.4541383,Plank Road, Perkiomen Township, Montgomery County, Pennsylvania,,,,19473, United States of America
40.3356266,-75.4058214,Ridge Road, Salford Township, Montgomery County, Pennsylvania,,,,19473, United States of America
40.2311751,-75.4654157,Bridge Street, Perkiomen Township, Montgomery County, Pennsylvania,,,,19473, United States of America
40.2319462,-75.3955182,Townshipline Road, Skippack Township, Montgomery County, Pennsylvania,,,,19473, United States of America
40.2407907,-75.4545074,Plank Road, Perkiomen Township, Montgomery County, Pennsylvania,,,,19473, United States of America
40.3174545,-75.3813171,Morwood Road, Franconia Township, Montgomery County, Pennsylvania,,,,19473, United States of America
40.2205357,-75.4046573,Cross Road, Skippack Township, Montgomery County, Pennsylvania,,,,19474, United States of America
40.2070017,-75.5984583,Old Schuylkill Road, East Coventry Township, Chester County, Pennsylvania,,,,19475, United States of America
40.1849684,-75.6004371,Saylors Mill Road, East Coventry Township, Chester County, Pennsylvania,,,,19475, United States of America
40.183809,-75.2338569,Mill Race Place, Lower Gwynedd Township, Montgomery County, Pennsylvania,,,,19477, United States of America
40.1822118,-75.3604632,Valley Forge Road, Worcester Township, Montgomery County, Pennsylvania,,,,19490, United States of America
40.185447,-75.3168965,Bethel Rd, Worcester Township, Montgomery County, Pennsylvania,,,,19490, United States of America
40.2835215,-75.4811757,Gravel Pike, Lower Frederick, Montgomery County, Pennsylvania,,,,19492, United States of America
40.2956005,-75.5186334,Big Road, Lower Frederick, Montgomery County, Pennsylvania,,,,19492, United States of America
40.2958096,-75.5189517,Big Road, Lower Frederick, Montgomery County, Pennsylvania,,,,19492, United States of America
40.2693813,-75.4934794,Gerloff Road, Lower Frederick, Montgomery County, Pennsylvania,,,,19492, United States of America
40.279067,-75.4937897,Big Road, Lower Frederick, Montgomery County, Pennsylvania,,,,19492, United States of America
40.3754257,-75.5160235,Kutztown Road, Upper Hanover Township, Montgomery County, Pennsylvania,,,,19503, United States of America
40.3935184,-75.5340556,Kutztown Road, Upper Hanover Township, Montgomery County, Pennsylvania,,,,19503, United States of America
40.3037173,-75.6369567,Rick Road, Douglass Township, Montgomery County, Pennsylvania,,,,19512, United States of America
40.2450467,-75.6607252,Schuykill River Trail, West Pottsgrove, Berks County, Pennsylvania,,,,19518, United States of America
40.3400721,-75.5917092,Congo Road, Douglass Township, Montgomery County, Pennsylvania,,,,19525, United States of America
40.2945353,-75.5792194,Swamp Pike, Limerick Township, Montgomery County, Pennsylvania,,,,19525, United States of America
40.292524,-75.6032585,Buchert Road, New Hanover Township, Montgomery County, Pennsylvania,,,,19525, United States of America
40.2915138,-75.5772801,Swamp Pike, Limerick Township, Montgomery County, Pennsylvania,,,,19525, United States of America
40.2506985,-75.5350924,Swamp Pike, Limerick Township, Montgomery County, Pennsylvania,,,,19525, United States of America
40.3412976,-75.622074,PA 100, New Berlinville, Berks County, Pennsylvania,,,,19545, United States of America
40.3487046,-75.6315598,North Reading Avenue, New Berlinville, Berks County, Pennsylvania,,,,19545, United States of America
40.3208186,-75.6111495,E Philadelphia Avenue, Douglass Township, Montgomery County, Pennsylvania,,,,19545, United States of America
40.3421255,-75.6151002,County Line Road, Douglass Township, Montgomery County, Pennsylvania,,,,19545, United States of America
40.3206872,-75.6110113,E Philadelphia Avenue, Douglass Township, Montgomery County, Pennsylvania,,,,19545, United States of America
40.3223878,-75.6159969,E Philadelphia Avenue, Douglass Township, Montgomery County, Pennsylvania,,,,19545, United States of America
40.3207601,-75.6110877,E Philadelphia Avenue, Douglass Township, Montgomery County, Pennsylvania,,,,19545, United States of America
40.2453741,-75.6496302,Rich Ranieri,218, East Main Street, North Coventry Township, Chester County, Pennsylvania,,19465, United States of America
39.9996585,-75.2854793,Torah Academy of Greater Philadelphia,742, Argyle Road, Wynnewood, Lower Merion Township, Montgomery County, Pennsylvania,19096, United States of America
39.9875196,-75.2776741,Penn Wynne Elementary,250, Haverford Road, Wynnewood, Lower Merion Township, Montgomery County, Pennsylvania,19096, United States of America
40.1503559,-75.34126,West Germantown Pike, The Enclave (Williamstadt), East Norriton, East Norriton Township, Montgomery County, Pennsylvania,,19462, United States of America
40.1026316,-75.2786731,Plymouth Meeting Friends Meeting House, West Germantown Pike, Cold Point Village, Plymouth Township, Montgomery County, Pennsylvania,,19462, United States of America
40.1354373,-75.3187132,DeKalb Pike, The Enclave (Williamstadt), East Norriton, East Norriton Township, Montgomery County, Pennsylvania,,19462, United States of America
40.121497,-75.3399048,Montgomery County-Norristown Public Library,1001, Powell Street, Norristown, Montgomery County, Pennsylvania,,19401, United States of America
40.2356127,-75.2251278,Montgomery Township Building,1001, Stump Road, Montgomery Township, Montgomery County, Pennsylvania,,18936, United States of America
40.2354089,-75.2401008,LUKOIL,913, Bethlehem Pike, Montgomery Township, Montgomery County, Pennsylvania,,19454, United States of America
40.0959438,-75.1251743,Wells Fargo Bank,400, Old York Road, Jenkintown, Montgomery County, Pennsylvania,,19046, United States of America
40.2079505,-75.2247672,Talbots,1460, Bethlehem Pike, Horsham Township, Montgomery County, Pennsylvania,,19454, United States of America
40.1131971,-75.2852063,Lukoil, West Germantown Pike, Plymouth Meeting Mall, Plymouth Township, Montgomery County, Pennsylvania,,19462, United States of America
40.0971594,-75.1258269,Church of Our Saviour,821, Homestead Road, Jenkintown, Montgomery County, Pennsylvania,,19046, United States of America
40.2474666,-75.659892,Pottsgrove Mansion,100, West King Street, Pottstown, Montgomery County, Pennsylvania,,19464, United States of America
40.1356437,-75.3185122,DeKalb Pike, The Enclave (Williamstadt), East Norriton, East Norriton Township, Montgomery County, Pennsylvania,,19462, United States of America
40.3091487,-75.3564906,Gavin Construction, 439A, Harleysville Pike, Franconia Township, Montgomery County, Pennsylvania,,18964, United States of America
40.2059892,-75.2244989,Sunoco,1406, Welsh Road, Lower Gwynedd Township, Montgomery County, Pennsylvania,,19454, United States of America
40.0812601,-75.1370254,Serpentine Lane, Elkins Park, Cheltenham Township, Montgomery County, Pennsylvania,,,19027, United States of America
40.0249667,-75.2829046,Dodds Lane, Wynnewood, Lower Merion Township, Montgomery County, Pennsylvania,,,19035, United States of America
40.1653934,-75.2829046,Ardway Road, Blue Bell Country Club, Whitpain Township, Montgomery County, Pennsylvania,,,19422, United States of America
40.1545535,-75.2215651,Rita's, South Ridge Avenue, Ambler, Montgomery County, Pennsylvania,,,19002, United States of America
40.1385244,-75.5032506,Eagles Nest Deli, Norwood Street, Upper Providence Township, Montgomery County, Pennsylvania,,,19453, United States of America
40.1517741,-75.3365695,Denise Road, East Norriton, East Norriton Township, Montgomery County, Pennsylvania,,,19403, United States of America
40.222882,-75.3987889,Skippack Stylekrafters, Store Road, Skippack Township, Montgomery County, Pennsylvania,,,19474, United States of America
40.324992,-75.3281748,Saint Pauls Lutheran Church, West Lincoln Avenue, Telford, Montgomery County, Pennsylvania,,,18969, United States of America
40.08182,-75.4043016,880, East Swedesford Road, Upper Merion Township, Montgomery County, Pennsylvania,,,19087, United States of America
40.0711763,-75.1530171,West Cheltenham Avenue, West Oak Lane, Philadelphia, Philadelphia County, Pennsylvania,,,19027, United States of America
40.0958096,-75.4508467,Site of the Marquee, Camp Road, Upper Merion Township, Montgomery County, Pennsylvania,,,19355, United States of America
40.0922359,-75.1621002,Lot 1, Limekiln Pike, Cheltenham Township, Montgomery County, Pennsylvania,,,19038, United States of America
40.0996762,-75.2966532,Cross County Trail, Cold Point Village, Plymouth Township, Montgomery County, Pennsylvania,,,19462, United States of America
40.1648638,-75.4172013,Lower Providence Baptist Church, Ridge Pike, Lower Providence Township, Montgomery County, Pennsylvania,,,19408, United States of America
40.1051084,-75.3451838,Bridgeport Station 31 Fire Station, Mill Street, Bridgeport, Montgomery County, Pennsylvania,,,19405, United States of America
40.0792766,-75.3015714,720, Fayette Street, Conshohocken, Montgomery County, Pennsylvania,,,19428, United States of America
40.1295515,-75.3785172,Juanita Road, West Norriton, West Norriton Township, Montgomery County, Pennsylvania,,,19403, United States of America
40.0050917,-75.2183892,Hilton, Stout Road, Lower Merion Township, Philadelphia County, Pennsylvania,,,19004, United States of America
40.1585225,-75.2763517,Skippack Pike, Blue Bell Country Club, Whitpain Township, Montgomery County, Pennsylvania,,,19422, United States of America
40.0992653,-75.1757058,Westminster Theological Seminary, Church Rd, Cheltenham Township, Montgomery County, Pennsylvania,,,19118, United States of America
40.1257761,-75.2568064,Oak Lane Day School, Stenton Avenue, Whitemarsh Township, Montgomery County, Pennsylvania,,,19422, United States of America
40.2269758,-75.4073479,Skippack Station 86 Fire Station, Bridge Road, Skippack Township, Montgomery County, Pennsylvania,,,19430, United States of America
40.0737021,-75.1309607,Old York Road, Elkins Park, Cheltenham Township, Montgomery County, Pennsylvania,,,19027, United States of America
40.1387206,-75.3026328,KinderCare, Old Arch Road, Whitpain Township, Montgomery County, Pennsylvania,,,19422, United States of America
40.1742757,-75.1068388,Hellman Auto Service Center, Byberry Road, Hatboro, Montgomery County, Pennsylvania,,,19090, United States of America
40.1562106,-75.1220043,Ooka Hibachi and Sushi, Easton Road, Upper Moreland Township, Montgomery County, Pennsylvania,,,19090, United States of America
40.1268942,-75.360835,West Marshall Street, West Norriton, West Norriton Township, Montgomery County, Pennsylvania,,,19403, United States of America
40.1315396,-75.3692612,West Marshall Street, West Norriton, West Norriton Township, Montgomery County, Pennsylvania,,,19403, United States of America
40.0105385,-75.2578119,814, East Montgomery Avenue, Narberth, Montgomery County, Pennsylvania,,,19072, United States of America
40.0129145,-75.2930393,Woodside Road, Wynnewood, Lower Merion Township, Montgomery County, Pennsylvania,,,19041, United States of America
40.1246946,-75.3645164,West Main Street, West Norriton, West Norriton Township, Montgomery County, Pennsylvania,,,19403, United States of America
40.033578,-75.2670955,Conshohocken State Road, Wynnewood, Lower Merion Township, Montgomery County, Pennsylvania,,,19128, United States of America
40.0320513,-75.3031404,Morris Avenue, Wynnewood, Lower Merion Township, Montgomery County, Pennsylvania,,,19010, United States of America
39.9940374,-75.2417959,City Avenue, Wynnewood, Lower Merion Township, Philadelphia County, Pennsylvania,,,19131, United States of America
40.1542752,-75.3174799,West Township Line Road, East Norriton, East Norriton Township, Montgomery County, Pennsylvania,,,19422, United States of America
40.0859176,-75.0887081,Shady Lane, Fox Chase Farm, Rockledge, Philadelphia County, Pennsylvania,,,19027, United States of America
40.088571,-75.2553952,East Germantown Pike, Mitchell Court, Whitemarsh Township, Montgomery County, Pennsylvania,,,19444, United States of America
40.0754825,-75.3855718,Trash, Cadet Trail - White, Upper Merion Township, Montgomery County, Pennsylvania,,,19406, United States of America
39.9786941,-75.2301442,North 54th Street, Garden Court, Philadelphia, Philadelphia County, Pennsylvania,,,19131, United States of America
40.2083018,-75.2246659,Bank of America, Bethlehem Pike, Horsham Township, Montgomery County, Pennsylvania,,,19454, United States of America
40.2217242,-75.3879897,Skippack Post Office, Skippack Pike, Skippack Township, Montgomery County, Pennsylvania,,,19473, United States of America
40.1210551,-75.1855296,Christ's Lutheran Church, Pennsylvania Avenue, Springfield Township, Montgomery County, Pennsylvania,,,19075, United States of America
40.1297495,-75.3732788,West Main Street, West Norriton, West Norriton Township, Montgomery County, Pennsylvania,,,19403, United States of America
39.9955154,-75.2884885,James Road, Wynnewood, Lower Merion Township, Montgomery County, Pennsylvania,,,19003, United States of America
40.0710106,-75.1527259,West Cheltenham Avenue, West Oak Lane, Philadelphia, Philadelphia County, Pennsylvania,,,19027, United States of America
40.2228104,-75.3963189,First Niagra Bank, Skippack Pike, Skippack Township, Montgomery County, Pennsylvania,,,19473, United States of America
40.0815421,-75.1443585,Washington Lane, Elkins Park, Cheltenham Township, Montgomery County, Pennsylvania,,,19046, United States of America
40.0812219,-75.0896176,Austrian Village, Rockledge Avenue, Rockledge, Montgomery County, Pennsylvania,,,19046, United States of America
40.1624694,-75.3317435,Township Line Road, East Norriton, East Norriton Township, Montgomery County, Pennsylvania,,,19403, United States of America
40.0648978,-75.1171687,New Second Street, Elkins Park, Cheltenham Township, Montgomery County, Pennsylvania,,,19027, United States of America
40.0854888,-75.1250203,Meetinghouse Rd, Elkins Park, Cheltenham Township, Montgomery County, Pennsylvania,,,19046, United States of America
40.0272503,-75.2728639,Mill Creek Road, Wynnewood, Lower Merion Township, Montgomery County, Pennsylvania,,,19035, United States of America
40.2523985,-75.3020022,home pool, PA 63, Hatfield Township, Montgomery County, Pennsylvania,,,19446, United States of America
40.1307233,-75.0558127,Tomlinson Road, Philmont, Lower Moreland Township, Montgomery County, Pennsylvania,,,19006, United States of America
40.0005586,-75.2426473,North Highland Avenue, Wynnewood, Lower Merion Township, Montgomery County, Pennsylvania,,,19066, United States of America
40.04296,-75.28339,Waverly Road, Wynnewood, Lower Merion Township, Montgomery County, Pennsylvania,,,19035, United States of America
40.3346937,-75.641898,Boyertown Community Center, West Philadelphia Avenue, Boyertown, Berks County, Pennsylvania,,,19512, United States of America
40.1697814,-75.2678131,Morris Road, Blue Bell Country Club, Whitpain Township, Montgomery County, Pennsylvania,,,19422, United States of America
40.0097139,-75.2555052,Washington Encampment 1777, East Montgomery Avenue, Narberth, Montgomery County, Pennsylvania,,,19131, United States of America
40.2363777,-75.2750299,Saint Stanislaus School, East Main Street, Lansdale, Montgomery County, Pennsylvania,,,19454, United States of America
40.0688328,-75.1061146,Jenkintown Road, Elkins Park, Cheltenham Township, Montgomery County, Pennsylvania,,,19027, United States of America
40.0084456,-75.26046,219, Grayling Avenue, Narberth, Montgomery County, Pennsylvania,,,19072, United States of America
40.0136039,-75.2493544,Putnam Road, Wynnewood, Lower Merion Township, Montgomery County, Pennsylvania,,,19066, United States of America
40.1644148,-75.3220585,North Wales Road, East Norriton, East Norriton Township, Montgomery County, Pennsylvania,,,19462, United States of America
40.1025014,-75.2913491,Chemical Road, Cold Point Village, Plymouth Township, Montgomery County, Pennsylvania,,,19462, United States of America
40.0800515,-75.4002702,University of Phoenix Wayne Campus, Devon Park Drive, Upper Merion Township, Montgomery County, Pennsylvania,,,19087, United States of America
40.1359787,-75.2614866,Narcissa Road, Cold Point Village, Plymouth Township, Montgomery County, Pennsylvania,,,19422, United States of America
40.1210284,-75.0659523,Huntingdon Valley Presbyterian Church, Huntingdon Pike, Lower Moreland Township, Montgomery County, Pennsylvania,,,19006, United States of America
40.0891436,-75.0711243,Pine Road, Fox Chase Farm, Philadelphia, Philadelphia County, Pennsylvania,,,19027, United States of America
40.1698304,-75.3447388,Township Line Road, East Norriton, East Norriton Township, Montgomery County, Pennsylvania,,,19403, United States of America
39.9987443,-75.2718014,East Lancaster Avenue, Wynnewood, Lower Merion Township, Montgomery County, Pennsylvania,,,19041, United States of America
40.1378698,-75.3623592,Sterigere Street, West Norriton, West Norriton Township, Montgomery County, Pennsylvania,,,19403, United States of America
40.1244282,-75.3640484,West Main Street, West Norriton, West Norriton Township, Montgomery County, Pennsylvania,,,19403, United States of America
40.0859301,-75.085686,Shady Lane, Fox Chase Farm, Rockledge, Philadelphia County, Pennsylvania,,,19027, United States of America
40.0634097,-75.1393881,Cheltenham Avenue, Pittville, Philadelphia, Philadelphia County, Pennsylvania,,,19027, United States of America
40.0091173,-75.2703636,1, Sabine Avenue, Narberth, Montgomery County, Pennsylvania,,,19072, United States of America
40.1804654,-75.1148084,Village Drive, Blair Mill Village, Upper Moreland Township, Montgomery County, Pennsylvania,,,19044, United States of America
39.993126,-75.2437375,City Avenue, Wynnewood, Lower Merion Township, Philadelphia County, Pennsylvania,,,19131, United States of America
40.1177632,-75.3728911,Schuylkill River Trail, West Norriton, West Norriton Township, Montgomery County, Pennsylvania,,,19406, United States of America
40.2752747,-75.4568497,Joe's Spring Mount Hotel, Main Street, Lower Frederick, Montgomery County, Pennsylvania,,,19473, United States of America
39.9705689,-75.3047227,Delaware County District Justice Courthouse, West Chester Pike, Haverford Township, Delaware County, Pennsylvania,,,19083, United States of America
39.9564971,-75.2480644,South Cobbs Creek Parkway, Cobbs Creek, Philadelphia, Philadelphia County, Pennsylvania,,,19143, United States of America
39.9986237,-75.2350098,Oakland Terrace, Wynnewood, Lower Merion Township, Philadelphia County, Pennsylvania,,,19131, United States of America
40.1725195,-75.3139161,North Wales Road, East Norriton, East Norriton Township, Montgomery County, Pennsylvania,,,19462, United States of America
40.0860641,-75.2845732,Cedar Grove Road, Sherry Lake Apartments, Whitemarsh Township, Montgomery County, Pennsylvania,,,19462, United States of America
40.1623114,-75.3314433,Township Line Road, East Norriton, East Norriton Township, Montgomery County, Pennsylvania,,,19403, United States of America
40.0006195,-75.2845157,West Wynnewood Road, Wynnewood, Lower Merion Township, Montgomery County, Pennsylvania,,,19003, United States of America
40.1002351,-75.2048895,Preston Road, Wyndmoor, Springfield Township, Montgomery County, Pennsylvania,,,19031, United States of America
40.1012075,-75.3052324,Conicelli Honda, W Ridge Pike, Plymouth Township, Montgomery County, Pennsylvania,,,19462, United States of America
40.0083113,-75.2698245,239, North Wynnewood Avenue, Narberth, Montgomery County, Pennsylvania,,,19072, United States of America
40.1255957,-75.2094951,electric shed, Walking path, Whitemarsh Township, Montgomery County, Pennsylvania,,,19128, United States of America
40.1390461,-75.1450176,Reformed Church, Bernard Avenue, Upper Dublin Township, Montgomery County, Pennsylvania,,,19090, United States of America
40.1617733,-75.3798431,BP, Valley Forge Road, Worcester Township, Montgomery County, Pennsylvania,,,19490, United States of America
40.2454998,-75.2435395,Starbucks, Bethlehem Pike, Montgomery Township, Montgomery County, Pennsylvania,,,19454, United States of America
40.1023985,-75.2914577,Chemical Road, Cold Point Village, Plymouth Township, Montgomery County, Pennsylvania,,,19462, United States of America
40.1013753,-75.2827664,Sierra Road, Cold Point Village, Plymouth Township, Montgomery County, Pennsylvania,,,19462, United States of America
40.2960483,-75.4543483,Salford Post Office, Salford Station road, Upper Salford Township, Montgomery County, Pennsylvania,,,19473, United States of America
40.0596554,-75.3388726,Piaget School, West Matsonford Road, Upper Merion Township, Montgomery County, Pennsylvania,,,19428, United States of America
40.1342394,-75.0613772,Swedenborg Library, College Drive, Bryn Athyn, Montgomery County, Pennsylvania,,,19090, United States of America
40.0836691,-75.2329247,The Cedars House, Forbidden Drive, Andorra, Philadelphia, Philadelphia County, Pennsylvania,,19128, United States of America
40.0536388,-75.1514623,Kinsey School, Ridley Street, Somerville, Philadelphia, Philadelphia County, Pennsylvania,,19138, United States of America
40.1228944,-75.194541,Springfield Township, Montgomery County, Pennsylvania,,,,,19034, United States of America
